     2.10           G: GLONASS NAV DATA                     RINEX VERSION / TYPE
teqc  2015Jun23                         20220412 01:38:10UTCPGM / RUN BY / DATE
Linux 2.4.21-27.ELsmp|Opteron|gcc -static|Linux x86_64|=+   COMMENT
  2022     3    31   -9.313225746155D-10                    CORR TO SYSTEM TIME
                                                            END OF HEADER
 5 22  4  1  2 45  0.0 9.037088602781D-05 0.000000000000D+00 9.000000000000D+03
    2.211860351562D+03-1.563768386841D-01-3.725290298462D-09 0.000000000000D+00
    2.380639501953D+04-1.216366767883D+00 0.000000000000D+00 1.000000000000D+00
   -8.842471679688D+03-3.309522628784D+00 9.313225746155D-10 0.000000000000D+00
 4 22  4  1  2 45  0.0 1.345463097095D-04 9.094947017729D-13 9.000000000000D+03
   -6.766074707031D+03-6.990499496460D-01-1.862645149231D-09 0.000000000000D+00
    1.259427001953D+04-2.812872886658D+00 9.313225746155D-10 6.000000000000D+00
   -2.108949658203D+04-1.453925132751D+00 2.793967723846D-09 0.000000000000D+00
 6 22  4  1  2 45  0.0-4.068855196238D-05-1.818989403546D-12 9.000000000000D+03
    1.163646630859D+04 5.631914138794D-01-2.793967723846D-09 0.000000000000D+00
    1.986200830078D+04 1.398378372192D+00-9.313225746155D-10-4.000000000000D+00
    1.096337548828D+04-3.131795883179D+00-9.313225746155D-10 0.000000000000D+00
18 22  4  1  2 45  0.0 1.121126115322D-04 0.000000000000D+00 9.000000000000D+03
   -1.893659033203D+04 5.100297927856D-01-4.656612873077D-09 0.000000000000D+00
    1.667453271484D+04-1.747846603394D-01 3.725290298462D-09-3.000000000000D+00
    3.540234375000D+03 3.570023536682D+00-0.000000000000D+00 0.000000000000D+00
19 22  4  1  3 15  0.0-1.836912706494D-04-9.094947017729D-13 1.080000000000D+04
   -1.341676953125D+04-3.297147750854D-01-4.656612873077D-09 0.000000000000D+00
    2.082749511719D+04 8.036012649536D-01 3.725290298462D-09 3.000000000000D+00
   -6.064309082031D+03 3.490283966064D+00 9.313225746155D-10 0.000000000000D+00
 5 22  4  1  3 15  0.0 9.037088602781D-05 0.000000000000D+00 1.080000000000D+04
    1.524434082031D+03-6.324796676636D-01-3.725290298462D-09 0.000000000000D+00
    2.099079833984D+04-1.875329971313D+00 9.313225746155D-10 1.000000000000D+00
   -1.437991699219D+04-2.803143501282D+00 1.862645149231D-09 0.000000000000D+00
 4 22  4  1  3 15  0.0 1.345481723547D-04 9.094947017729D-13 1.080000000000D+04
   -8.481065917969D+03-1.200685501099D+00-9.313225746155D-10 0.000000000000D+00
    7.405441406250D+03-2.901186943054D+00 1.862645149231D-09 6.000000000000D+00
   -2.285461474609D+04-4.945259094238D-01 2.793967723846D-09 0.000000000000D+00
 6 22  4  1  3 15  0.0-4.068855196238D-05-1.818989403546D-12 1.080000000000D+04
    1.255211865234D+04 4.122877120972D-01-2.793967723846D-09 0.000000000000D+00
    2.162857714844D+04 5.611381530762D-01-0.000000000000D+00-4.000000000000D+00
    4.974644042969D+03-3.479084014893D+00-0.000000000000D+00 0.000000000000D+00
18 22  4  1  3 15  0.0 1.121144741774D-04 9.094947017729D-13 1.080000000000D+04
   -1.755296777344D+04 9.863862991333D-01-3.725290298462D-09 0.000000000000D+00
    1.569633691406D+04-9.273986816406D-01 4.656612873077D-09-3.000000000000D+00
    9.745652343750D+03 3.280001640320D+00-9.313225746155D-10 0.000000000000D+00
20 22  4  1  3 15  0.0-6.777606904507D-05-0.000000000000D+00 1.107000000000D+04
    9.746059570312D+02-1.775756835938D+00-1.862645149231D-09 0.000000000000D+00
    1.382003271484D+04 2.343902587891D+00 0.000000000000D+00 2.000000000000D+00
   -2.139861279297D+04 1.436871528625D+00 2.793967723846D-09 0.000000000000D+00
19 22  4  1  3 45  0.0-1.836940646172D-04-9.094947017729D-13 1.260000000000D+04
   -1.346316943359D+04 2.471694946289D-01-3.725290298462D-09 0.000000000000D+00
    2.166005859375D+04 9.145641326904D-02 5.587935447693D-09 3.000000000000D+00
    3.715351562500D+02 3.614201545715D+00 0.000000000000D+00 0.000000000000D+00
 5 22  4  1  3 45  0.0 9.037181735039D-05 0.000000000000D+00 1.260000000000D+04
   -1.267846679688D+02-1.210711479187D+00-2.793967723846D-09 0.000000000000D+00
    1.720792529297D+04-2.281152725220D+00 1.862645149231D-09 1.000000000000D+00
   -1.880310498047D+04-2.079530715942D+00 2.793967723846D-09 0.000000000000D+00
 6 22  4  1  3 45  0.0-4.069320857525D-05-1.818989403546D-12 1.260000000000D+04
    1.297512060547D+04 2.023983001709D-02-3.725290298462D-09 0.000000000000D+00
    2.190484912109D+04-2.385072708130D-01 0.000000000000D+00-4.000000000000D+00
   -1.399274902344D+03-3.556993484497D+00 0.000000000000D+00 0.000000000000D+00
18 22  4  1  3 45  0.0 1.121154054999D-04 9.094947017729D-13 1.260000000000D+04
   -1.554486132812D+04 1.198878288269D+00-1.862645149231D-09 0.000000000000D+00
    1.331533886719D+04-1.713951110840D+00 4.656612873077D-09-3.000000000000D+00
    1.519546533203D+04 2.736021041870D+00-1.862645149231D-09 0.000000000000D+00
20 22  4  1  3 45  0.0-6.777793169022D-05-9.094947017729D-13 1.260000000000D+04
   -1.673847656250D+03-1.158647537231D+00-2.793967723846D-09 0.000000000000D+00
    1.794897949219D+04 2.193373680115D+00 1.862645149231D-09 2.000000000000D+00
   -1.801685058594D+04 2.296294212341D+00 1.862645149231D-09 0.000000000000D+00
 7 22  4  1  3 45  0.0 3.333203494549D-05 0.000000000000D+00 1.404000000000D+04
    1.600296142578D+04 1.146917343140D+00-1.862645149231D-09 0.000000000000D+00
    1.310012744141D+04 1.691055297852D+00-9.313225746155D-10 5.000000000000D+00
    1.494387158203D+04-2.722620964050D+00-1.862645149231D-09 0.000000000000D+00
 7 22  4  1  4 15  0.0 3.333296626806D-05 0.000000000000D+00 1.440000000000D+04
    1.790275634766D+04 9.196653366089D-01-2.793967723846D-09 0.000000000000D+00
    1.546176367188D+04 9.295186996460D-01-0.000000000000D+00 5.000000000000D+00
    9.528918945312D+03-3.255067825317D+00-9.313225746155D-10 0.000000000000D+00
19 22  4  1  4 15  0.0-1.836959272623D-04-9.094947017729D-13 1.440000000000D+04
   -1.265979345703D+04 6.040391921997D-01-2.793967723846D-09 0.000000000000D+00
    2.107894287109D+04-7.495326995850D-01 5.587935447693D-09 3.000000000000D+00
    6.778640136719D+03 3.458556175232D+00-0.000000000000D+00 0.000000000000D+00
 5 22  4  1  4 15  0.0 9.037274867296D-05 0.000000000000D+00 1.440000000000D+04
   -2.831300781250D+03-1.784114837646D+00-9.313225746155D-10 0.000000000000D+00
    1.295406591797D+04-2.396193504333D+00 1.862645149231D-09 1.000000000000D+00
   -2.176935546875D+04-1.194885253906D+00 2.793967723846D-09 0.000000000000D+00
 6 22  4  1  4 15  0.0-4.069693386555D-05-1.818989403546D-12 1.440000000000D+04
    1.250824609375D+04-5.651330947876D-01-3.725290298462D-09 0.000000000000D+00
    2.085667919922D+04-8.944978713989D-01 9.313225746155D-10-4.000000000000D+00
   -7.664865234375D+03-3.359515190125D+00 9.313225746155D-10 0.000000000000D+00
18 22  4  1  4 15  0.0 1.121181994677D-04 9.094947017729D-13 1.440000000000D+04
   -1.340002246094D+04 1.141256332397D+00-9.313225746155D-10 0.000000000000D+00
    9.576901855469D+03-2.416193008423D+00 3.725290298462D-09-3.000000000000D+00
    1.946825244141D+04 1.980795860291D+00-1.862645149231D-09 0.000000000000D+00
20 22  4  1  4 15  0.0-6.777979433537D-05-9.094947017729D-13 1.440000000000D+04
   -3.201613281250D+03-5.498275756836D-01-2.793967723846D-09 0.000000000000D+00
    2.153778466797D+04 1.747142791748D+00 3.725290298462D-09 2.000000000000D+00
   -1.323871777344D+04 2.978234291077D+00 1.862645149231D-09 0.000000000000D+00
 7 22  4  1  4 45  0.0 3.333296626806D-05 0.000000000000D+00 1.620000000000D+04
    1.916085205078D+04 4.390840530396D-01-3.725290298462D-09 0.000000000000D+00
    1.646820166016D+04 2.039937973022D-01 9.313225746155D-10 5.000000000000D+00
    3.376757324219D+03-3.536281585693D+00-0.000000000000D+00 0.000000000000D+00
19 22  4  1  4 45  0.0-1.836987212300D-04-9.094947017729D-13 1.620000000000D+04
   -1.144594531250D+04 7.003068923950D-01-9.313225746155D-10 0.000000000000D+00
    1.895303808594D+04-1.604841232300D+00 5.587935447693D-09 3.000000000000D+00
    1.266141406250D+04 3.035404205322D+00-9.313225746155D-10 0.000000000000D+00
 5 22  4  1  4 45  0.0 9.037367999554D-05 0.000000000000D+00 1.620000000000D+04
   -6.480142578125D+03-2.242280006409D+00-0.000000000000D+00 0.000000000000D+00
    8.751702636719D+03-2.229287147522D+00 1.862645149231D-09 1.000000000000D+00
   -2.304915332031D+04-2.179136276245D-01 2.793967723846D-09 0.000000000000D+00
 6 22  4  1  4 45  0.0-4.070065915585D-05-1.818989403546D-12 1.620000000000D+04
    1.087463916016D+04-1.259743690491D+00-2.793967723846D-09 0.000000000000D+00
    1.881957080078D+04-1.326953887939D+00 1.862645149231D-09-4.000000000000D+00
   -1.333714404297D+04-2.902074813843D+00 1.862645149231D-09 0.000000000000D+00
20 22  4  1  4 45  0.0-6.778165698051D-05-9.094947017729D-13 1.620000000000D+04
   -3.724263671875D+03-5.857944488525D-02-2.793967723846D-09 0.000000000000D+00
    2.408670068359D+04 1.048989295959D+00 5.587935447693D-09 2.000000000000D+00
   -7.433993164062D+03 3.429467201233D+00 9.313225746155D-10 0.000000000000D+00
21 22  4  1  4 45  0.0-2.898043021560D-04-2.728484105319D-12 1.713000000000D+04
    7.012185546875D+03-6.728591918945D-01-1.862645149231D-09 0.000000000000D+00
    1.153425146484D+04 2.891863822937D+00 9.313225746155D-10 4.000000000000D+00
   -2.164931494141D+04 1.321161270142D+00 2.793967723846D-09 0.000000000000D+00
 9 22  4  1  4 45  0.0 4.739500582218D-05 1.818989403546D-12 1.764000000000D+04
   -5.605327148438D+02-2.950629234314D+00-9.313225746155D-10 0.000000000000D+00
    1.184039257812D+04 9.123945236206D-01 2.793967723846D-09-2.000000000000D+00
    2.259268701172D+04-5.584182739258D-01-2.793967723846D-09 0.000000000000D+00
 7 22  4  1  5 15  0.0 3.333296626806D-05 0.000000000000D+00 1.800000000000D+04
    1.936214892578D+04-2.424392700195D-01-2.793967723846D-09 0.000000000000D+00
    1.628070263672D+04-3.815097808838D-01 1.862645149231D-09 5.000000000000D+00
   -3.036965820312D+03-3.543665885925D+00 0.000000000000D+00 0.000000000000D+00
